[{"OBJECT_NAME":"ONEWEB-0583","OBJECT_ID":"2022-166J","EPOCH":"2026-03-09T21:42:51.710688","MEAN_MOTION":13.21826745,"ECCENTRICITY":0.00014891,"INCLINATION":87.9164,"RA_OF_ASC_NODE":263.7961,"ARG_OF_PERICENTER":94.0839,"MEAN_ANOMALY":266.0465,"EPHEMERIS_TYPE":0,"CLASSIFICATION_TYPE":"U","NORAD_CAT_ID":54650,"ELEMENT_SET_NO":999,"REV_AT_EPOCH":15841,"BSTAR":-4.9105175e-5,"MEAN_MOTION_DOT":-7.0e-8,"MEAN_MOTION_DDOT":0},{"OBJECT_NAME":"NOVA 1","OBJECT_ID":"1981-044A","EPOCH":"2026-03-09T23:44:36.716640","MEAN_MOTION":13.23287337,"ECCENTRICITY":0.00130269,"INCLINATION":89.842,"RA_OF_ASC_NODE":90.1115,"ARG_OF_PERICENTER":217.6651,"MEAN_ANOMALY":201.8697,"EPHEMERIS_TYPE":0,"CLASSIFICATION_TYPE":"U","NORAD_CAT_ID":12458,"ELEMENT_SET_NO":999,"REV_AT_EPOCH":16340,"BSTAR":5.1340553e-5,"MEAN_MOTION_DOT":3.1e-7,"MEAN_MOTION_DDOT":0}]
